{"type": "FeatureCollection", "name": "Taiz_Urban_Watershed_Basin", "features": [{"type": "Feature", "properties": {"name": "Taiz Metropolitan Watershed Basin (\u062d\u0648\u0636 \u0645\u062f\u064a\u0646\u0629 \u062a\u0639\u0632 \u0627\u0644\u0631\u0626\u064a\u0633\u064a)", "area_km2": 174.63, "pour_point_lat": 13.62262, "pour_point_lon": 43.94531, "max_elevation_m": 2955.0, "min_elevation_m": 1025.0, "relief_ratio_m_km": 146.0}, "geometry": {"type": "Polygon", "coordinates": [[[43.98033, 13.60326], [43.98067, 13.60326], [43.98102, 13.60326], [43.98136, 13.60326], [43.9817, 13.60326], [43.98205, 13.60293], [43.98239, 13.60293], [43.98273, 13.60293], [43.98308, 13.60293], [43.98342, 13.6026], [43.98376, 13.60226], [43.98376, 13.60193], [43.98411, 13.6016], [43.98445, 13.6016], [43.98479, 13.60126], [43.98514, 13.60093], [43.98548, 13.60093], [43.98582, 13.60059], [43.98617, 13.60026], [43.98617, 13.59993], [43.98617, 13.59959], [43.98617, 13.59926], [43.98617, 13.59893], [43.98617, 13.59859], [43.98582, 13.59826], [43.98548, 13.59792], [43.98548, 13.59759], [43.98582, 13.59726], [43.98582, 13.59692], [43.98617, 13.59659], [43.98651, 13.59626], [43.98685, 13.59592], [43.9872, 13.59559], [43.9872, 13.59525], [43.9872, 13.59492], [43.9872, 13.59459], [43.98685, 13.59425], [43.98685, 13.59392], [43.98685, 13.59359], [43.9872, 13.59325], [43.9872, 13.59292], [43.98754, 13.59258], [43.98754, 13.59225], [43.98788, 13.59192], [43.98823, 13.59158], [43.98823, 13.59125], [43.98788, 13.59092], [43.98788, 13.59058], [43.98788, 13.59025], [43.98788, 13.58991], [43.98788, 13.58958], [43.98788, 13.58925], [43.98823, 13.58891], [43.98788, 13.58858], [43.98788, 13.58825], [43.98788, 13.58791], [43.98788, 13.58758], [43.98823, 13.58725], [43.98857, 13.58691], [43.98891, 13.58658], [43.98926, 13.58624], [43.9896, 13.58591], [43.98994, 13.58558], [43.99029, 13.58524], [43.99029, 13.58491], [43.99029, 13.58458], [43.99063, 13.58424], [43.99097, 13.58391], [43.99097, 13.58357], [43.99132, 13.58324], [43.99132, 13.58291], [43.99166, 13.58257], [43.99166, 13.58224], [43.992, 13.58191], [43.992, 13.58157], [43.992, 13.58124], [43.99235, 13.5809], [43.99269, 13.58057], [43.99303, 13.58057], [43.99338, 13.58057], [43.99372, 13.58024], [43.99406, 13.5799], [43.99441, 13.57957], [43.99475, 13.57924], [43.99475, 13.5789], [43.99509, 13.57857], [43.99544, 13.57823], [43.99544, 13.5779], [43.99578, 13.57757], [43.99612, 13.57723], [43.99647, 13.5769], [43.99647, 13.57657], [43.99647, 13.57623], [43.99681, 13.5759], [43.99715, 13.57556], [43.9975, 13.57523], [43.99784, 13.5749], [43.99818, 13.5749], [43.99853, 13.57456], [43.99887, 13.57423], [43.99921, 13.5739], [43.99956, 13.57356], [43.9999, 13.57323], [43.9999, 13.5729], [44.00024, 13.5729], [44.00059, 13.5729], [44.00093, 13.5729], [44.00127, 13.5729], [44.00162, 13.57256], [44.00162, 13.57223], [44.00162, 13.57189], [44.00162, 13.57156], [44.00162, 13.57123], [44.00127, 13.57089], [44.00127, 13.57056], [44.00024, 13.56956], [43.9999, 13.56922], [43.99956, 13.56889], [43.99921, 13.56856], [43.99921, 13.56822], [44.00059, 13.56956], [44.00093, 13.56989], [44.00127, 13.57023], [43.99887, 13.56756], [43.99921, 13.56789], [43.99887, 13.56722], [43.99887, 13.56689], [43.9975, 13.56522], [43.99784, 13.56555], [43.99818, 13.56589], [43.99853, 13.56622], [43.99887, 13.56655], [43.9975, 13.56489], [43.9975, 13.56455], [43.9975, 13.56422], [43.9975, 13.56388], [43.99715, 13.56322], [43.9975, 13.56355], [43.9975, 13.56288], [43.9975, 13.56255], [43.9975, 13.56222], [43.9975, 13.56188], [43.9975, 13.56155], [43.9975, 13.56121], [43.99784, 13.56088], [43.99818, 13.56055], [43.99853, 13.56021], [43.99853, 13.55988], [43.99853, 13.55955], [43.99853, 13.55921], [43.99853, 13.55888], [43.99853, 13.55854], [43.99853, 13.55821], [43.99818, 13.55754], [43.99853, 13.55788], [43.99818, 13.55721], [43.99818, 13.55688], [43.99818, 13.55654], [43.99853, 13.55621], [43.99853, 13.55588], [43.99853, 13.55554], [43.99853, 13.55521], [43.99853, 13.55487], [43.99853, 13.55454], [43.99853, 13.55421], [43.99853, 13.55387], [43.99853, 13.55354], [43.99818, 13.55287], [43.99853, 13.55321], [43.99818, 13.55254], [43.99784, 13.55187], [43.99818, 13.5522], [43.9975, 13.5512], [43.99784, 13.55154], [43.9975, 13.55087], [43.99681, 13.54987], [43.99715, 13.5502], [43.99509, 13.5472], [43.9975, 13.55054], [43.99681, 13.54953], [43.99544, 13.54753], [43.99647, 13.54887], [43.99578, 13.54787], [43.99509, 13.54686], [43.99681, 13.5492], [43.99612, 13.5482], [43.99647, 13.54853], [43.99509, 13.54653], [43.99544, 13.5462], [43.99544, 13.54553], [43.99578, 13.54586], [43.99544, 13.5452], [43.99578, 13.54486], [43.99612, 13.54453], [43.99612, 13.54419], [43.99647, 13.54386], [43.99647, 13.54353], [43.99681, 13.54353], [43.99715, 13.54319], [43.9975, 13.54286], [43.99784, 13.54319], [43.99818, 13.54319], [43.99853, 13.54286], [43.99887, 13.54253], [43.99887, 13.54219], [43.99887, 13.54186], [43.99887, 13.54153], [43.99921, 13.54119], [43.99921, 13.54086], [43.99921, 13.54052], [43.99921, 13.54019], [43.99956, 13.54019], [43.9999, 13.53986], [44.00024, 13.53952], [44.00059, 13.53919], [44.00093, 13.53886], [44.00127, 13.53852], [44.00162, 13.53819], [44.00196, 13.53785], [44.0023, 13.53752], [44.0023, 13.53719], [44.0023, 13.53685], [44.0023, 13.53652], [44.00265, 13.53619], [44.00299, 13.53585], [44.00333, 13.53552], [44.00368, 13.53518], [44.00402, 13.53485], [44.00436, 13.53452], [44.00471, 13.53418], [44.00471, 13.53385], [44.00505, 13.53352], [44.00539, 13.53318], [44.00574, 13.53285], [44.00574, 13.53251], [44.00608, 13.53251], [44.00642, 13.53218], [44.00677, 13.53218], [44.00711, 13.53218], [44.00745, 13.53185], [44.0078, 13.53151], [44.00814, 13.53151], [44.00848, 13.53151], [44.00883, 13.53151], [44.00917, 13.53151], [44.00951, 13.53151], [44.00986, 13.53151], [44.0102, 13.53118], [44.01054, 13.53118], [44.01089, 13.53085], [44.01123, 13.53085], [44.01157, 13.53085], [44.01192, 13.53051], [44.01226, 13.53085], [44.0126, 13.53118], [44.01295, 13.53151], [44.01329, 13.53151], [44.01363, 13.53118], [44.01398, 13.53118], [44.01432, 13.53185], [44.01432, 13.53151], [44.01466, 13.53218], [44.01501, 13.53251], [44.01535, 13.53285], [44.01569, 13.53285], [44.01604, 13.53318], [44.01638, 13.53318], [44.01672, 13.53318], [44.01707, 13.53352], [44.01741, 13.53385], [44.01775, 13.53418], [44.0181, 13.53418], [44.01844, 13.53385], [44.01878, 13.53385], [44.01913, 13.53352], [44.01947, 13.53318], [44.01981, 13.53318], [44.02016, 13.53318], [44.0205, 13.53318], [44.02084, 13.53318], [44.02119, 13.53318], [44.02153, 13.53318], [44.02187, 13.53285], [44.02222, 13.53251], [44.02256, 13.53218], [44.0229, 13.53218], [44.02325, 13.53185], [44.02359, 13.53185], [44.02393, 13.53185], [44.02428, 13.53185], [44.02462, 13.53185], [44.02496, 13.53218], [44.02531, 13.53251], [44.02565, 13.53285], [44.02599, 13.53285], [44.02634, 13.53285], [44.02668, 13.53285], [44.02702, 13.53285], [44.02737, 13.53285], [44.02771, 13.53285], [44.02805, 13.53251], [44.0284, 13.53251], [44.02874, 13.53218], [44.02908, 13.53218], [44.02943, 13.53218], [44.02977, 13.53218], [44.03011, 13.53251], [44.03046, 13.53285], [44.0308, 13.53251], [44.03114, 13.53251], [44.03149, 13.53218], [44.03183, 13.53218], [44.03217, 13.53185], [44.03252, 13.53185], [44.03286, 13.53151], [44.03286, 13.53118], [44.0332, 13.53118], [44.03355, 13.53085], [44.03389, 13.53085], [44.03423, 13.53085], [44.03458, 13.53085], [44.03492, 13.53051], [44.03526, 13.53018], [44.03561, 13.53018], [44.03595, 13.53018], [44.03629, 13.52984], [44.03664, 13.52951], [44.03698, 13.52951], [44.03732, 13.52951], [44.03767, 13.52951], [44.03801, 13.52918], [44.03835, 13.52918], [44.0387, 13.52918], [44.03904, 13.52918], [44.03938, 13.52918], [44.03973, 13.52918], [44.04007, 13.52918], [44.04041, 13.52951], [44.04076, 13.52951], [44.0411, 13.52951], [44.04144, 13.52951], [44.04179, 13.52951], [44.04213, 13.52951], [44.04247, 13.52951], [44.04282, 13.52951], [44.04316, 13.52951], [44.0435, 13.52951], [44.04385, 13.52951], [44.04419, 13.52918], [44.04453, 13.52951], [44.04488, 13.52984], [44.04522, 13.53018], [44.04556, 13.53051], [44.04591, 13.53085], [44.04625, 13.53051], [44.04659, 13.53018], [44.04694, 13.52984], [44.04728, 13.52951], [44.04762, 13.52918], [44.04797, 13.52884], [44.04831, 13.52751], [44.04831, 13.52784], [44.04831, 13.52818], [44.049, 13.52451], [44.04865, 13.52651], [44.04831, 13.52851], [44.049, 13.52484], [44.04865, 13.52684], [44.049, 13.52517], [44.04865, 13.52718], [44.04934, 13.5235], [44.049, 13.52551], [44.04934, 13.52384], [44.049, 13.52584], [44.04934, 13.52417], [44.049, 13.52617], [44.04968, 13.52317], [44.05003, 13.52284], [44.05037, 13.52284], [44.05071, 13.5225], [44.05106, 13.52217], [44.0514, 13.52184], [44.05174, 13.52184], [44.05209, 13.52217], [44.05243, 13.5225], [44.05277, 13.5225], [44.05312, 13.5225], [44.05346, 13.5225], [44.0538, 13.52284], [44.05415, 13.52284], [44.05449, 13.52284], [44.05483, 13.52317], [44.05518, 13.52317], [44.05552, 13.5235], [44.05586, 13.52317], [44.05621, 13.52284], [44.05655, 13.52317], [44.05689, 13.52317], [44.05724, 13.52317], [44.05758, 13.52284], [44.05792, 13.52284], [44.05827, 13.52284], [44.05861, 13.52284], [44.05895, 13.52284], [44.0593, 13.52317], [44.0593, 13.5235], [44.05964, 13.52384], [44.05998, 13.52417], [44.06033, 13.52451], [44.06067, 13.52484], [44.06101, 13.52517], [44.06136, 13.52551], [44.06136, 13.52584], [44.0617, 13.52617], [44.0617, 13.52651], [44.0617, 13.52684], [44.0617, 13.52718], [44.06204, 13.52751], [44.06204, 13.52784], [44.06239, 13.52818], [44.06273, 13.52851], [44.06307, 13.52851], [44.06342, 13.52884], [44.06376, 13.52884], [44.06376, 13.52918], [44.0641, 13.52951], [44.06445, 13.52984], [44.06479, 13.53018], [44.06479, 13.53051], [44.06513, 13.53085], [44.06513, 13.53118], [44.06513, 13.53151], [44.06513, 13.53185], [44.06513, 13.53285], [44.06548, 13.53218], [44.06479, 13.53385], [44.06513, 13.53318], [44.06548, 13.53251], [44.06479, 13.53418], [44.06513, 13.53352], [44.06479, 13.53452], [44.06479, 13.53485], [44.06513, 13.53518], [44.06513, 13.53552], [44.06548, 13.53585], [44.06548, 13.53619], [44.06548, 13.53652], [44.06548, 13.53685], [44.06513, 13.53785], [44.06548, 13.53719], [44.06513, 13.53819], [44.06548, 13.53752], [44.06513, 13.53852], [44.06513, 13.53886], [44.06513, 13.53919], [44.06513, 13.53952], [44.06513, 13.53986], [44.06513, 13.54019], [44.06548, 13.54052], [44.06548, 13.54086], [44.06548, 13.54119], [44.06445, 13.54353], [44.06479, 13.54286], [44.06548, 13.54153], [44.06445, 13.54386], [44.06479, 13.54319], [44.06513, 13.54253], [44.06548, 13.54186], [44.06548, 13.54219], [44.06479, 13.54419], [44.06513, 13.54453], [44.06548, 13.54486], [44.06548, 13.5452], [44.06582, 13.54553], [44.06582, 13.54586], [44.06582, 13.5462], [44.06582, 13.54653], [44.06582, 13.54686], [44.06445, 13.54953], [44.06582, 13.5472], [44.06548, 13.54787], [44.06513, 13.54853], [44.06479, 13.5492], [44.06445, 13.54987], [44.06582, 13.54753], [44.06548, 13.5482], [44.06513, 13.54887], [44.06445, 13.5502], [44.0641, 13.55087], [44.06445, 13.55054], [44.0641, 13.5512], [44.0641, 13.55154], [44.06445, 13.55187], [44.06445, 13.5522], [44.06479, 13.55254], [44.06479, 13.55287], [44.06479, 13.55321], [44.06479, 13.55354], [44.06479, 13.55387], [44.06479, 13.55421], [44.06479, 13.55454], [44.06479, 13.55487], [44.06513, 13.55521], [44.06548, 13.55554], [44.06582, 13.55588], [44.06616, 13.55588], [44.06651, 13.55588], [44.06685, 13.55588], [44.06719, 13.55588], [44.06754, 13.55588], [44.06788, 13.55588], [44.06788, 13.55621], [44.06822, 13.55654], [44.06857, 13.55688], [44.06891, 13.55721], [44.06925, 13.55754], [44.0696, 13.55788], [44.06994, 13.55821], [44.07028, 13.55854], [44.07063, 13.55854], [44.07097, 13.55888], [44.07131, 13.55921], [44.07166, 13.55955], [44.072, 13.55988], [44.07234, 13.56021], [44.07234, 13.56055], [44.07234, 13.56088], [44.07234, 13.56121], [44.07234, 13.56155], [44.072, 13.56222], [44.07234, 13.56188], [44.072, 13.56255], [44.072, 13.56288], [44.072, 13.56322], [44.07234, 13.56355], [44.07269, 13.56388], [44.07303, 13.56422], [44.07337, 13.56455], [44.07372, 13.56455], [44.07406, 13.56489], [44.0744, 13.56522], [44.07475, 13.56522], [44.07509, 13.56522], [44.07578, 13.56489], [44.07543, 13.56522], [44.07646, 13.56455], [44.07612, 13.56489], [44.07715, 13.56422], [44.07681, 13.56455], [44.07749, 13.56422], [44.07784, 13.56455], [44.07818, 13.56489], [44.07852, 13.56489], [44.07921, 13.56455], [44.07887, 13.56489], [44.07955, 13.56455], [44.0799, 13.56489], [44.08024, 13.56522], [44.08058, 13.56522], [44.08092, 13.56522], [44.08127, 13.56522], [44.08161, 13.56522], [44.08195, 13.56522], [44.0823, 13.56522], [44.08264, 13.56522], [44.08298, 13.56522], [44.08333, 13.56522], [44.08401, 13.56489], [44.08367, 13.56522], [44.08436, 13.56489], [44.0847, 13.56489], [44.08504, 13.56489], [44.08539, 13.56489], [44.08573, 13.56489], [44.08607, 13.56489], [44.08642, 13.56489], [44.08676, 13.56522], [44.0871, 13.56522], [44.08779, 13.56489], [44.08745, 13.56522], [44.08813, 13.56489], [44.08848, 13.56489], [44.08813, 13.56522], [44.08779, 13.56555], [44.08745, 13.56589], [44.0871, 13.56622], [44.08676, 13.56655], [44.08676, 13.56689], [44.08676, 13.56722], [44.08676, 13.56756], [44.08676, 13.56789], [44.08642, 13.56822], [44.08642, 13.56856], [44.08607, 13.56889], [44.08607, 13.56922], [44.08607, 13.56956], [44.08607, 13.56989], [44.08813, 13.56889], [44.08779, 13.56922], [44.08642, 13.57023], [44.08848, 13.56889], [44.08607, 13.57056], [44.08573, 13.57089], [44.08779, 13.56956], [44.08882, 13.56889], [44.08745, 13.56989], [44.08916, 13.56889], [44.0871, 13.57023], [44.08676, 13.57056], [44.08951, 13.56889], [44.08642, 13.57089], [44.08607, 13.57123], [44.08951, 13.56922], [44.08985, 13.56956], [44.09019, 13.56989], [44.09054, 13.57023], [44.09088, 13.57056], [44.09122, 13.57089], [44.09157, 13.57089], [44.09191, 13.57089], [44.09225, 13.57123], [44.0926, 13.57156], [44.09294, 13.57189], [44.09328, 13.57223], [44.09363, 13.57223], [44.09397, 13.57223], [44.09431, 13.57223], [44.09466, 13.57223], [44.095, 13.57223], [44.09534, 13.57223], [44.09569, 13.57223], [44.09603, 13.57223], [44.09637, 13.57256], [44.09672, 13.5729], [44.09706, 13.57323], [44.0974, 13.57356], [44.09775, 13.5739], [44.09809, 13.57423], [44.09843, 13.57456], [44.09981, 13.57423], [44.09946, 13.57456], [44.09878, 13.5749], [44.09912, 13.5749], [44.10015, 13.57456], [44.10015, 13.5749], [44.10015, 13.57523], [44.10049, 13.57556], [44.10084, 13.57556], [44.10118, 13.5759], [44.10152, 13.5759], [44.10187, 13.5759], [44.10221, 13.57623], [44.10255, 13.57623], [44.1029, 13.57623], [44.10324, 13.57623], [44.10427, 13.5759], [44.10358, 13.57623], [44.10461, 13.5759], [44.10393, 13.57623], [44.10496, 13.5759], [44.10633, 13.57556], [44.10667, 13.57556], [44.10599, 13.5759], [44.1053, 13.57623], [44.10702, 13.57556], [44.10736, 13.57556], [44.10564, 13.57623], [44.1077, 13.5759], [44.10805, 13.5759], [44.10839, 13.57623], [44.10873, 13.57657], [44.10908, 13.5769], [44.10942, 13.5769], [44.10976, 13.5769], [44.11011, 13.5769], [44.11045, 13.5769], [44.11079, 13.57723], [44.11114, 13.57757], [44.11114, 13.5779], [44.11148, 13.57823], [44.11182, 13.57857], [44.11217, 13.5789], [44.11251, 13.5789], [44.11285, 13.5789], [44.1132, 13.5789], [44.11354, 13.5789], [44.11388, 13.57924], [44.11423, 13.57924], [44.11457, 13.57924], [44.11491, 13.57924], [44.11526, 13.57924], [44.1156, 13.57957], [44.11594, 13.57957], [44.11629, 13.57957], [44.11697, 13.57957], [44.11732, 13.57957], [44.11766, 13.57957], [44.11663, 13.5799], [44.118, 13.57957], [44.11835, 13.57957], [44.11869, 13.57957], [44.11869, 13.5799], [44.11869, 13.58024], [44.11869, 13.58057], [44.11869, 13.5809], [44.11869, 13.58124], [44.11869, 13.58157], [44.11869, 13.58191], [44.11869, 13.58224], [44.11869, 13.58257], [44.11869, 13.58291], [44.11835, 13.58324], [44.11835, 13.58357], [44.11869, 13.58391], [44.11835, 13.58424], [44.118, 13.58458], [44.118, 13.58491], [44.118, 13.58524], [44.118, 13.58558], [44.118, 13.58591], [44.11766, 13.58624], [44.11766, 13.58658], [44.11766, 13.58691], [44.11732, 13.58725], [44.11732, 13.58758], [44.11732, 13.58791], [44.11732, 13.58825], [44.11732, 13.58858], [44.11732, 13.58891], [44.11766, 13.58925], [44.118, 13.58958], [44.11835, 13.58991], [44.11869, 13.59025], [44.11903, 13.59058], [44.11938, 13.59058], [44.11938, 13.59092], [44.11972, 13.59125], [44.11972, 13.59158], [44.12006, 13.59192], [44.12041, 13.59225], [44.12041, 13.59258], [44.12006, 13.59292], [44.12041, 13.59292], [44.11972, 13.59325], [44.11938, 13.59359], [44.11938, 13.59392], [44.11938, 13.59425], [44.11938, 13.59459], [44.11938, 13.59492], [44.11938, 13.59525], [44.11938, 13.59559], [44.11938, 13.59592], [44.11972, 13.59626], [44.12006, 13.59659], [44.12041, 13.59692], [44.12041, 13.59726], [44.12041, 13.59759], [44.12041, 13.59792], [44.12041, 13.59826], [44.12041, 13.59859], [44.12041, 13.59893], [44.12041, 13.59926], [44.12041, 13.59959], [44.12041, 13.59993], [44.12041, 13.60026], [44.12041, 13.60059], [44.12041, 13.60093], [44.12041, 13.60126], [44.12041, 13.6016], [44.12041, 13.60193], [44.12041, 13.60226], [44.12041, 13.6026], [44.12041, 13.60293], [44.12041, 13.60326], [44.12041, 13.6036], [44.12041, 13.60393], [44.12041, 13.60426], [44.12041, 13.6046], [44.12041, 13.60493], [44.12041, 13.60527], [44.12041, 13.6056], [44.12041, 13.60593], [44.12041, 13.60627], [44.12041, 13.6066], [44.12041, 13.60693], [44.12041, 13.60727], [44.12041, 13.6076], [44.12041, 13.60794], [44.12041, 13.60827], [44.12041, 13.6086], [44.12041, 13.60894], [44.12041, 13.60927], [44.12041, 13.6096], [44.12006, 13.60994], [44.11972, 13.61027], [44.11938, 13.61061], [44.11972, 13.61094], [44.11938, 13.61127], [44.11972, 13.61161], [44.11972, 13.61194], [44.11972, 13.61227], [44.11938, 13.61261], [44.11938, 13.61294], [44.11938, 13.61328], [44.11972, 13.61361], [44.11972, 13.61394], [44.12006, 13.61428], [44.12041, 13.61461], [44.12041, 13.61494], [44.12041, 13.61528], [44.12041, 13.61561], [44.12041, 13.61595], [44.12041, 13.61628], [44.12041, 13.61661], [44.12041, 13.61695], [44.12041, 13.61728], [44.12041, 13.61761], [44.12006, 13.61795], [44.11972, 13.61828], [44.11938, 13.61861], [44.11903, 13.61895], [44.11869, 13.61928], [44.11835, 13.61962], [44.118, 13.61995], [44.11766, 13.62028], [44.11766, 13.62062], [44.11766, 13.62095], [44.11766, 13.62128], [44.118, 13.62162], [44.11835, 13.62195], [44.11903, 13.62229], [44.11869, 13.62229], [44.11938, 13.62262], [44.11972, 13.62295], [44.11972, 13.62329], [44.12006, 13.62362], [44.12041, 13.62395], [44.12041, 13.62429], [44.12041, 13.62462], [44.12006, 13.62496], [44.12041, 13.62529], [44.12041, 13.62562], [44.12041, 13.62596], [44.12041, 13.62629], [44.12041, 13.62662], [44.12041, 13.62696], [44.12006, 13.62729], [44.11972, 13.62729], [44.11938, 13.62763], [44.11903, 13.62796], [44.11903, 13.62829], [44.11903, 13.62863], [44.11938, 13.62896], [44.11938, 13.62929], [44.11938, 13.62963], [44.11903, 13.62996], [44.11869, 13.6303], [44.11869, 13.63063], [44.11903, 13.63096], [44.11938, 13.6313], [44.12006, 13.63163], [44.11972, 13.63163], [44.12041, 13.63196], [44.12041, 13.6323], [44.12041, 13.63263], [44.12006, 13.63296], [44.12006, 13.6333], [44.12006, 13.63363], [44.12006, 13.63397], [44.11972, 13.6343], [44.11972, 13.63463], [44.11972, 13.63497], [44.11938, 13.6353], [44.11938, 13.63563], [44.11938, 13.63597], [44.11903, 13.6363], [44.11903, 13.63664], [44.11938, 13.63697], [44.11938, 13.6373], [44.11938, 13.63764], [44.11938, 13.63797], [44.11972, 13.6383], [44.12006, 13.63864], [44.11972, 13.63897], [44.11938, 13.63931], [44.11903, 13.63964], [44.11869, 13.63997], [44.11835, 13.63997], [44.118, 13.64031], [44.11766, 13.64064], [44.11732, 13.64064], [44.11697, 13.64064], [44.11663, 13.64097], [44.11114, 13.63864], [44.11663, 13.64131], [44.11079, 13.63864], [44.11148, 13.63897], [44.11045, 13.63864], [44.11182, 13.63931], [44.11663, 13.64164], [44.10873, 13.63797], [44.10942, 13.6383], [44.11011, 13.63864], [44.11217, 13.63964], [44.10908, 13.6383], [44.10976, 13.63864], [44.11251, 13.63997], [44.11388, 13.64064], [44.11285, 13.64031], [44.11354, 13.64064], [44.11423, 13.64097], [44.11629, 13.64198], [44.10839, 13.6383], [44.1132, 13.64064], [44.11457, 13.64131], [44.11594, 13.64198], [44.1156, 13.64198], [44.11457, 13.64164], [44.10805, 13.63864], [44.08985, 13.62996], [44.1077, 13.63864], [44.11457, 13.64198], [44.11526, 13.64231], [44.11491, 13.64231], [44.10736, 13.63864], [44.09019, 13.6303], [44.08951, 13.62996], [44.11457, 13.64231], [44.09054, 13.63063], [44.10667, 13.63864], [44.09294, 13.63196], [44.10702, 13.63897], [44.09328, 13.6323], [44.0926, 13.63196], [44.09054, 13.63096], [44.08916, 13.6303], [44.10633, 13.63897], [44.09363, 13.63263], [44.09225, 13.63196], [44.08882, 13.6303], [44.10187, 13.63697], [44.09191, 13.63196], [44.09054, 13.6313], [44.08848, 13.6303], [44.10221, 13.6373], [44.09363, 13.63296], [44.09157, 13.63196], [44.09088, 13.63163], [44.10599, 13.63931], [44.08813, 13.6303], [44.09397, 13.6333], [44.09122, 13.63196], [44.10221, 13.63764], [44.10152, 13.6373], [44.10255, 13.63797], [44.09397, 13.63363], [44.10564, 13.63964], [44.08607, 13.62963], [44.1029, 13.6383], [44.09431, 13.63397], [44.08779, 13.63063], [44.10324, 13.63864], [44.0871, 13.6303], [44.08642, 13.62996], [44.10118, 13.63764], [44.08573, 13.62963], [44.10358, 13.63897], [44.08745, 13.63063], [44.08676, 13.6303], [44.1053, 13.63997], [44.09431, 13.6343], [44.10496, 13.63997], [44.10358, 13.63931], [44.10084, 13.63797], [44.09431, 13.63463], [44.08539, 13.62996], [44.10358, 13.63964], [44.09466, 13.63497], [44.10461, 13.64031], [44.10084, 13.6383], [44.10393, 13.63997], [44.095, 13.6353], [44.10427, 13.64031], [44.095, 13.63563], [44.08504, 13.6303], [44.10049, 13.63864], [44.09534, 13.63597], [44.09569, 13.6363], [44.06857, 13.62162], [44.10015, 13.63897], [44.09569, 13.63664], [44.0847, 13.63063], [44.06891, 13.62195], [44.06925, 13.62229], [44.09981, 13.63931], [44.0847, 13.63096], [44.09534, 13.63697], [44.0696, 13.62262], [44.06822, 13.62195], [44.06994, 13.62295], [44.0847, 13.6313], [44.09946, 13.63964], [44.095, 13.6373], [44.09672, 13.6383], [44.09603, 13.63797], [44.09775, 13.63897], [44.09706, 13.63864], [44.0847, 13.63163], [44.09637, 13.6383], [44.09809, 13.63931], [44.09569, 13.63797], [44.0974, 13.63897], [44.09912, 13.63997], [44.06994, 13.62329], [44.095, 13.63764], [44.09843, 13.63964], [44.09534, 13.63797], [44.07028, 13.62362], [44.06788, 13.62229], [44.09843, 13.63997], [44.07063, 13.62395], [44.09878, 13.64031], [44.08436, 13.63196], [44.09843, 13.64031], [44.07097, 13.62429], [44.09878, 13.64064], [44.08436, 13.6323], [44.08401, 13.6323], [44.07097, 13.62462], [44.06754, 13.62262], [44.08367, 13.6323], [44.06616, 13.62195], [44.06719, 13.62262], [44.07097, 13.62496], [44.06651, 13.62229], [44.06582, 13.62195], [44.06685, 13.62262], [44.08333, 13.63263], [44.08264, 13.6323], [44.08092, 13.6313], [44.08298, 13.63263], [44.07097, 13.62529], [44.06548, 13.62195], [44.08127, 13.63163], [44.0823, 13.6323], [44.08058, 13.6313], [44.08161, 13.63196], [44.08195, 13.6323], [44.08024, 13.6313], [44.07097, 13.62562], [44.0799, 13.6313], [44.07955, 13.6313], [44.07475, 13.62829], [44.07097, 13.62596], [44.06513, 13.62229], [44.07509, 13.62863], [44.07131, 13.62629], [44.07921, 13.6313], [44.0744, 13.62829], [44.07543, 13.62896], [44.07578, 13.62929], [44.07406, 13.62829], [44.07612, 13.62963], [44.07131, 13.62662], [44.07234, 13.62729], [44.07337, 13.62796], [44.07646, 13.62996], [44.07166, 13.62696], [44.07269, 13.62763], [44.07372, 13.62829], [44.07681, 13.6303], [44.07887, 13.63163], [44.07303, 13.62796], [44.072, 13.62729], [44.06479, 13.62262], [44.07681, 13.63063], [44.07166, 13.62729], [44.06445, 13.62262], [44.07852, 13.63196], [44.0641, 13.62262], [44.07646, 13.63096], [44.07818, 13.6323], [44.06376, 13.62262], [44.06342, 13.62262], [44.07612, 13.6313], [44.07749, 13.6323], [44.07784, 13.63263], [44.06307, 13.62262], [44.07578, 13.63163], [44.07715, 13.63263], [44.06273, 13.62262], [44.07578, 13.63196], [44.07681, 13.63296], [44.07578, 13.6323], [44.06239, 13.62295], [44.07578, 13.63263], [44.07646, 13.6333], [44.07578, 13.63296], [44.07612, 13.6333], [44.07578, 13.6333], [44.06204, 13.62329], [44.07543, 13.6333], [44.0617, 13.62362], [44.06136, 13.62395], [44.06101, 13.62395], [44.06067, 13.62429], [44.06033, 13.62462], [44.05998, 13.62496], [44.06033, 13.62529], [44.06033, 13.62562], [44.06033, 13.62596], [44.06033, 13.62629], [44.05998, 13.62662], [44.05964, 13.62662], [44.0593, 13.62662], [44.05895, 13.62662], [44.05861, 13.62696], [44.05827, 13.62729], [44.05792, 13.62729], [44.05758, 13.62763], [44.05724, 13.62796], [44.05689, 13.62829], [44.05655, 13.62829], [44.05621, 13.62829], [44.05586, 13.62863], [44.05552, 13.62896], [44.05518, 13.62929], [44.05518, 13.62963], [44.05518, 13.62996], [44.05518, 13.6303], [44.05518, 13.63063], [44.05518, 13.63096], [44.05483, 13.6313], [44.05483, 13.63163], [44.05449, 13.63196], [44.05415, 13.63196], [44.0538, 13.63196], [44.05346, 13.6323], [44.05312, 13.63263], [44.05312, 13.63296], [44.05312, 13.6333], [44.05346, 13.63397], [44.0538, 13.63463], [44.05312, 13.63363], [44.05346, 13.6343], [44.05346, 13.63497], [44.05312, 13.63497], [44.05277, 13.6353], [44.05243, 13.63563], [44.05209, 13.63597], [44.05174, 13.6363], [44.0514, 13.63664], [44.05106, 13.63697], [44.05071, 13.63697], [44.05037, 13.63697], [44.05003, 13.6373], [44.04968, 13.6373], [44.04934, 13.63764], [44.049, 13.63764], [44.04865, 13.63797], [44.04831, 13.6383], [44.04797, 13.63864], [44.04762, 13.63897], [44.04728, 13.63931], [44.04694, 13.63964], [44.04694, 13.63997], [44.04659, 13.63997], [44.04625, 13.64031], [44.04591, 13.64064], [44.04556, 13.64097], [44.04556, 13.64131], [44.04522, 13.64164], [44.04488, 13.64164], [44.04453, 13.64131], [44.04419, 13.64097], [44.04385, 13.64097], [44.0435, 13.64097], [44.04316, 13.64131], [44.04282, 13.64131], [44.04247, 13.64164], [44.04213, 13.64164], [44.04179, 13.64164], [44.04144, 13.64198], [44.0411, 13.64231], [44.04076, 13.64231], [44.04041, 13.64264], [44.04007, 13.64298], [44.03973, 13.64298], [44.03938, 13.64298], [44.03904, 13.64298], [44.0387, 13.64298], [44.03835, 13.64298], [44.03801, 13.64298], [44.03767, 13.64298], [44.03732, 13.64331], [44.03698, 13.64364], [44.03698, 13.64398], [44.03664, 13.64431], [44.03664, 13.64465], [44.03629, 13.64498], [44.03629, 13.64531], [44.03595, 13.64565], [44.03561, 13.64598], [44.03526, 13.64665], [44.03526, 13.64631], [44.03492, 13.64698], [44.03458, 13.64698], [44.03423, 13.64731], [44.03389, 13.64731], [44.03355, 13.64731], [44.0332, 13.64731], [44.03286, 13.64765], [44.03252, 13.64798], [44.03217, 13.64832], [44.03183, 13.64865], [44.03149, 13.64865], [44.03114, 13.64898], [44.0308, 13.64898], [44.03046, 13.64898], [44.03011, 13.64898], [44.02977, 13.64932], [44.02943, 13.64932], [44.02908, 13.64932], [44.02874, 13.64898], [44.0284, 13.64898], [44.02805, 13.64898], [44.02771, 13.64898], [44.02771, 13.64865], [44.02737, 13.64832], [44.02702, 13.64798], [44.02668, 13.64798], [44.02634, 13.64765], [44.02599, 13.64731], [44.02565, 13.64698], [44.02531, 13.64665], [44.02496, 13.64665], [44.02462, 13.64631], [44.02428, 13.64598], [44.02393, 13.64631], [44.02359, 13.64665], [44.02325, 13.64698], [44.0229, 13.64731], [44.02256, 13.64731], [44.02222, 13.64765], [44.02187, 13.64765], [44.02153, 13.64765], [44.02084, 13.64932], [44.02119, 13.64798], [44.02084, 13.64898], [44.0205, 13.64998], [44.02084, 13.64865], [44.0205, 13.64965], [44.02084, 13.64832], [44.02016, 13.64998], [44.01981, 13.65032], [44.01947, 13.65065], [44.01913, 13.65065], [44.01878, 13.65065], [44.01844, 13.65099], [44.01775, 13.65199], [44.0181, 13.65099], [44.01741, 13.65265], [44.01775, 13.65165], [44.01741, 13.65232], [44.01775, 13.65132], [44.01707, 13.65299], [44.01672, 13.65332], [44.01638, 13.65366], [44.01604, 13.65399], [44.01569, 13.65432], [44.01535, 13.65466], [44.01501, 13.65499], [44.01466, 13.65532], [44.01432, 13.65566], [44.01123, 13.663], [44.01123, 13.66267], [44.01157, 13.66166], [44.01089, 13.66333], [44.01398, 13.65566], [44.01123, 13.66233], [44.01157, 13.66133], [44.01123, 13.662], [44.01192, 13.66033], [44.01157, 13.661], [44.01226, 13.65933], [44.01054, 13.66333], [44.01192, 13.66], [44.01157, 13.66066], [44.01226, 13.659], [44.01363, 13.65566], [44.01192, 13.65966], [44.01226, 13.65866], [44.0126, 13.65766], [44.0102, 13.66333], [44.01329, 13.65599], [44.01226, 13.65833], [44.01226, 13.65799], [44.00986, 13.66333], [44.01295, 13.65599], [44.01226, 13.65733], [44.0126, 13.65633], [44.01226, 13.65699], [44.00951, 13.66333], [44.01226, 13.65666], [44.00917, 13.663], [44.00883, 13.66333], [44.00848, 13.66333], [44.00814, 13.66367], [44.0078, 13.664], [44.00745, 13.66433], [44.00711, 13.66467], [44.00677, 13.665], [44.00608, 13.66634], [44.00642, 13.66534], [44.00608, 13.666], [44.00574, 13.66667], [44.00608, 13.66567], [44.00539, 13.66667], [44.00505, 13.66634], [44.00471, 13.666], [44.00436, 13.66567], [44.00402, 13.666], [44.00368, 13.66634], [44.00333, 13.66667], [44.00299, 13.667], [44.00265, 13.667], [44.0023, 13.667], [44.00196, 13.667], [44.00162, 13.667], [44.00127, 13.667], [44.00093, 13.667], [44.00059, 13.667], [44.00024, 13.667], [43.9999, 13.667], [43.99956, 13.667], [43.99921, 13.667], [43.99887, 13.667], [43.99853, 13.667], [43.99818, 13.667], [43.99784, 13.667], [43.9975, 13.667], [43.99715, 13.667], [43.99681, 13.667], [43.99647, 13.667], [43.99612, 13.667], [43.99578, 13.66667], [43.99544, 13.66667], [43.99509, 13.66667], [43.99475, 13.66634], [43.99441, 13.66667], [43.99406, 13.66667], [43.99372, 13.667], [43.99338, 13.667], [43.99303, 13.667], [43.99269, 13.66667], [43.99235, 13.66634], [43.99166, 13.667], [43.992, 13.66634], [43.99166, 13.66667], [43.99132, 13.667], [43.99097, 13.667], [43.99063, 13.667], [43.99029, 13.667], [43.98994, 13.667], [43.9896, 13.667], [43.98926, 13.667], [43.98891, 13.667], [43.98857, 13.667], [43.98823, 13.667], [43.98788, 13.667], [43.98754, 13.667], [43.9872, 13.66667], [43.98685, 13.66667], [43.98651, 13.667], [43.98617, 13.667], [43.98582, 13.667], [43.98548, 13.667], [43.98514, 13.667], [43.98479, 13.667], [43.98445, 13.667], [43.98411, 13.667], [43.98376, 13.667], [43.98342, 13.667], [43.98308, 13.667], [43.98273, 13.667], [43.98239, 13.667], [43.98205, 13.667], [43.9817, 13.667], [43.98136, 13.667], [43.98102, 13.667], [43.98067, 13.667], [43.98033, 13.667], [43.97999, 13.667], [43.97964, 13.667], [43.9793, 13.667], [43.97896, 13.667], [43.97861, 13.667], [43.97827, 13.667], [43.97793, 13.667], [43.97758, 13.667], [43.97724, 13.667], [43.9769, 13.667], [43.97655, 13.667], [43.97621, 13.667], [43.97587, 13.667], [43.97552, 13.667], [43.97518, 13.667], [43.97484, 13.667], [43.97449, 13.667], [43.97415, 13.667], [43.97381, 13.66667], [43.97346, 13.66634], [43.97312, 13.666], [43.97278, 13.66567], [43.97243, 13.66534], [43.97209, 13.665], [43.97175, 13.66467], [43.97003, 13.66567], [43.97038, 13.66534], [43.97072, 13.665], [43.97106, 13.66467], [43.97141, 13.66433], [43.96832, 13.667], [43.96866, 13.66667], [43.969, 13.66634], [43.96935, 13.666], [43.96969, 13.66567], [43.96797, 13.667], [43.96763, 13.667], [43.96729, 13.667], [43.96694, 13.667], [43.9666, 13.667], [43.96626, 13.66667], [43.96591, 13.66667], [43.96557, 13.66634], [43.96523, 13.66634], [43.96488, 13.66634], [43.96454, 13.666], [43.9642, 13.666], [43.96282, 13.667], [43.96317, 13.66667], [43.96351, 13.66634], [43.96385, 13.666], [43.96248, 13.667], [43.96214, 13.667], [43.96179, 13.66667], [43.96145, 13.66667], [43.96076, 13.667], [43.96111, 13.66667], [43.96042, 13.667], [43.96008, 13.667], [43.95973, 13.667], [43.95939, 13.667], [43.95905, 13.667], [43.9587, 13.667], [43.95836, 13.667], [43.95802, 13.667], [43.95767, 13.667], [43.95733, 13.66667], [43.95699, 13.66634], [43.95664, 13.666], [43.9563, 13.666], [43.95493, 13.66667], [43.95596, 13.66567], [43.95458, 13.66667], [43.95493, 13.66634], [43.95527, 13.666], [43.9539, 13.667], [43.95424, 13.66667], [43.95355, 13.667], [43.95527, 13.66567], [43.95561, 13.66534], [43.95321, 13.667], [43.95287, 13.667], [43.95252, 13.667], [43.95218, 13.667], [43.95184, 13.667], [43.95149, 13.667], [43.95115, 13.667], [43.95081, 13.667], [43.95046, 13.667], [43.94978, 13.667], [43.95012, 13.66667], [43.94943, 13.667], [43.94909, 13.667], [43.94875, 13.66667], [43.9484, 13.66634], [43.94806, 13.666], [43.94772, 13.66567], [43.94772, 13.66534], [43.94737, 13.665], [43.94772, 13.66467], [43.94772, 13.66433], [43.94772, 13.664], [43.94772, 13.66367], [43.94909, 13.66267], [43.94943, 13.66233], [43.94978, 13.662], [43.94875, 13.66267], [43.94772, 13.66333], [43.95012, 13.66166], [43.94806, 13.663], [43.9484, 13.66267], [43.95012, 13.66133], [43.95012, 13.661], [43.95012, 13.66066], [43.95012, 13.66033], [43.95012, 13.66], [43.95046, 13.65966], [43.95081, 13.65933], [43.95046, 13.659], [43.95046, 13.65866], [43.95046, 13.65833], [43.95046, 13.65799], [43.95046, 13.65766], [43.95046, 13.65733], [43.95046, 13.65699], [43.95046, 13.65666], [43.95012, 13.65633], [43.94978, 13.65599], [43.94943, 13.65566], [43.94909, 13.65532], [43.94875, 13.65499], [43.94875, 13.65466], [43.94875, 13.65432], [43.94875, 13.65399], [43.9484, 13.65366], [43.94806, 13.65332], [43.94772, 13.65299], [43.94737, 13.65265], [43.94703, 13.65232], [43.94669, 13.65199], [43.94634, 13.65165], [43.946, 13.65132], [43.94566, 13.65099], [43.94566, 13.65065], [43.94566, 13.65032], [43.94566, 13.64998], [43.94566, 13.64965], [43.94566, 13.64932], [43.94566, 13.64898], [43.94566, 13.64865], [43.94566, 13.64832], [43.94566, 13.64798], [43.94566, 13.64765], [43.946, 13.64731], [43.946, 13.64698], [43.94634, 13.64665], [43.946, 13.64631], [43.94566, 13.64598], [43.94566, 13.64565], [43.94566, 13.64531], [43.94566, 13.64498], [43.94566, 13.64465], [43.94566, 13.64431], [43.94566, 13.64398], [43.946, 13.64364], [43.94566, 13.64364], [43.94634, 13.64331], [43.946, 13.64298], [43.94566, 13.64264], [43.94566, 13.64231], [43.94566, 13.64198], [43.94566, 13.64164], [43.94566, 13.64131], [43.94566, 13.64097], [43.94566, 13.64064], [43.94566, 13.64031], [43.94566, 13.63997], [43.94566, 13.63964], [43.94566, 13.63931], [43.94566, 13.63897], [43.94566, 13.63864], [43.94566, 13.6383], [43.94566, 13.63797], [43.94566, 13.63764], [43.94566, 13.6373], [43.94566, 13.63697], [43.94566, 13.63664], [43.94566, 13.6363], [43.94566, 13.63597], [43.94566, 13.63563], [43.94566, 13.6353], [43.94566, 13.63497], [43.94566, 13.63463], [43.94566, 13.6343], [43.94566, 13.63397], [43.94566, 13.63363], [43.94566, 13.6333], [43.94566, 13.63296], [43.94566, 13.63263], [43.946, 13.6323], [43.94566, 13.63196], [43.94566, 13.63163], [43.94566, 13.6313], [43.94566, 13.63096], [43.94566, 13.63063], [43.94566, 13.6303], [43.946, 13.62996], [43.94566, 13.62963], [43.946, 13.62929], [43.946, 13.62896], [43.94634, 13.62863], [43.94669, 13.62829], [43.94669, 13.62796], [43.94669, 13.62763], [43.94669, 13.62729], [43.94634, 13.62696], [43.946, 13.62662], [43.946, 13.62629], [43.94634, 13.62596], [43.946, 13.62562], [43.94634, 13.62529], [43.94634, 13.62496], [43.94634, 13.62462], [43.94634, 13.62429], [43.946, 13.62395], [43.946, 13.62362], [43.946, 13.62329], [43.94566, 13.62295], [43.94531, 13.62262], [43.94566, 13.62229], [43.946, 13.62195], [43.94806, 13.62128], [43.94634, 13.62162], [43.9484, 13.62095], [43.94669, 13.62128], [43.94772, 13.62095], [43.94737, 13.62095], [43.94875, 13.62062], [43.94703, 13.62095], [43.94909, 13.62028], [43.94909, 13.61995], [43.94943, 13.61962], [43.94943, 13.61928], [43.94943, 13.61895], [43.95046, 13.61861], [43.95012, 13.61861], [43.94978, 13.61861], [43.95081, 13.61828], [43.95973, 13.61661], [43.95115, 13.61795], [43.96008, 13.61628], [43.95149, 13.61761], [43.95939, 13.61628], [43.96008, 13.61595], [43.95149, 13.61728], [43.95905, 13.61595], [43.95218, 13.61695], [43.96042, 13.61561], [43.95184, 13.61695], [43.95252, 13.61661], [43.9587, 13.61561], [43.96042, 13.61528], [43.9539, 13.61628], [43.95355, 13.61628], [43.95321, 13.61628], [43.95287, 13.61628], [43.95424, 13.61595], [43.9563, 13.61561], [43.95836, 13.61528], [43.96042, 13.61494], [43.95458, 13.61561], [43.95664, 13.61528], [43.95596, 13.61528], [43.96042, 13.61461], [43.95802, 13.61494], [43.95561, 13.61528], [43.95767, 13.61494], [43.95527, 13.61528], [43.95733, 13.61494], [43.95493, 13.61528], [43.95699, 13.61494], [43.96008, 13.61428], [43.96008, 13.61394], [43.96008, 13.61361], [43.96008, 13.61328], [43.96008, 13.61294], [43.96008, 13.61261], [43.96076, 13.61227], [43.96042, 13.61227], [43.96111, 13.61194], [43.96145, 13.61161], [43.96179, 13.61127], [43.96179, 13.61094], [43.96179, 13.61061], [43.96179, 13.61027], [43.96214, 13.60994], [43.96248, 13.6096], [43.96454, 13.60927], [43.9642, 13.60927], [43.96248, 13.60927], [43.96488, 13.60894], [43.96385, 13.60894], [43.96351, 13.60894], [43.96317, 13.60894], [43.96282, 13.60894], [43.96523, 13.6086], [43.96557, 13.60827], [43.97415, 13.6076], [43.97381, 13.6076], [43.96591, 13.60794], [43.97449, 13.60727], [43.97346, 13.60727], [43.96626, 13.6076], [43.97518, 13.60693], [43.97484, 13.60693], [43.97346, 13.60693], [43.96694, 13.60727], [43.9666, 13.60727], [43.97552, 13.6066], [43.96832, 13.60693], [43.96797, 13.60693], [43.96763, 13.60693], [43.96729, 13.60693], [43.97312, 13.6066], [43.96866, 13.6066], [43.97587, 13.60627], [43.97278, 13.60627], [43.96969, 13.60627], [43.96935, 13.60627], [43.969, 13.60627], [43.97621, 13.60593], [43.97243, 13.60593], [43.97003, 13.60593], [43.97621, 13.6056], [43.97209, 13.6056], [43.97175, 13.6056], [43.97141, 13.6056], [43.97038, 13.6056], [43.97655, 13.60527], [43.97106, 13.60527], [43.97072, 13.60527], [43.97655, 13.60493], [43.97827, 13.6046], [43.97758, 13.6046], [43.97724, 13.6046], [43.9769, 13.6046], [43.97896, 13.60426], [43.97861, 13.60426], [43.97793, 13.60426], [43.97964, 13.60393], [43.9793, 13.60393], [43.97999, 13.6036], [43.98033, 13.60326]]]}}]}